[{"OBJECT_NAME":"TIRSAT","OBJECT_ID":"2024-032C","EPOCH":"2026-03-09T22:53:26.104704","MEAN_MOTION":14.72202351,"ECCENTRICITY":0.00062938,"INCLINATION":98.0088,"RA_OF_ASC_NODE":128.8335,"ARG_OF_PERICENTER":103.9805,"MEAN_ANOMALY":256.2103,"EPHEMERIS_TYPE":0,"CLASSIFICATION_TYPE":"U","NORAD_CAT_ID":58989,"ELEMENT_SET_NO":999,"REV_AT_EPOCH":11048,"BSTAR":0.00030948624,"MEAN_MOTION_DOT":1.903e-5,"MEAN_MOTION_DDOT":0},{"OBJECT_NAME":"COSMOS 2251 DEB","OBJECT_ID":"1993-036BUN","EPOCH":"2026-03-08T08:57:07.128288","MEAN_MOTION":14.62416804,"ECCENTRICITY":0.01339378,"INCLINATION":73.9333,"RA_OF_ASC_NODE":82.3485,"ARG_OF_PERICENTER":179.5062,"MEAN_ANOMALY":180.6263,"EPHEMERIS_TYPE":0,"CLASSIFICATION_TYPE":"U","NORAD_CAT_ID":39583,"ELEMENT_SET_NO":999,"REV_AT_EPOCH":63030,"BSTAR":0.0016530159,"MEAN_MOTION_DOT":9.496e-5,"MEAN_MOTION_DDOT":0}]
